FENGYUN 1C DEB          
1 32414U 99025DAA 17343.96442398  .00000499  00000-0  32056-3 0  9993
2 32414  99.0768  21.2994 0052383 305.8790 172.4517 14.07255587533906
